[{"OBJECT_NAME":"STARLINK-36210","OBJECT_ID":"2025-303M","EPOCH":"2026-03-09T00:50:21.020064","MEAN_MOTION":15.27594454,"ECCENTRICITY":0.00022379,"INCLINATION":43.0036,"RA_OF_ASC_NODE":314.5291,"ARG_OF_PERICENTER":258.7936,"MEAN_ANOMALY":101.2664,"EPHEMERIS_TYPE":0,"CLASSIFICATION_TYPE":"U","NORAD_CAT_ID":67174,"ELEMENT_SET_NO":999,"REV_AT_EPOCH":1263,"BSTAR":0.0013034625,"MEAN_MOTION_DOT":0.00035797,"MEAN_MOTION_DDOT":0},{"OBJECT_NAME":"KUIPER-00209","OBJECT_ID":"2026-030N","EPOCH":"2026-03-09T14:49:43.575744","MEAN_MOTION":15.3016195,"ECCENTRICITY":0.0012191,"INCLINATION":51.8838,"RA_OF_ASC_NODE":220.0775,"ARG_OF_PERICENTER":59.1967,"MEAN_ANOMALY":301.0215,"EPHEMERIS_TYPE":0,"CLASSIFICATION_TYPE":"U","NORAD_CAT_ID":67776,"ELEMENT_SET_NO":999,"REV_AT_EPOCH":507,"BSTAR":0.0011963,"MEAN_MOTION_DOT":0.00035298,"MEAN_MOTION_DDOT":0}]
